{
  "links" : {
    "next" : "https://api.nasa.gov/neo/rest/v1/feed?start_date=2001-01-23&end_date=2001-01-23&detailed=true&api_key=t0TVs3DtDT2H8Oy2Zy8m2eVrNsAVKAexjcZXUckd",
    "prev" : "https://api.nasa.gov/neo/rest/v1/feed?start_date=2001-01-21&end_date=2001-01-21&detailed=true&api_key=t0TVs3DtDT2H8Oy2Zy8m2eVrNsAVKAexjcZXUckd",
    "self" : "https://api.nasa.gov/neo/rest/v1/feed?start_date=2001-01-22&end_date=2001-01-22&detailed=true&api_key=t0TVs3DtDT2H8Oy2Zy8m2eVrNsAVKAexjcZXUckd"
  },
  "element_count" : 5,
  "near_earth_objects" : {
    "2001-01-22" : [ {
      "links" : {
        "self" : "https://api.nasa.gov/neo/rest/v1/neo/3092286?api_key=t0TVs3DtDT2H8Oy2Zy8m2eVrNsAVKAexjcZXUckd"
      },
      "neo_reference_id" : "3092286",
      "name" : "(2001 BB40)",
      "nasa_jpl_url" : "http://ssd.jpl.nasa.gov/sbdb.cgi?sstr=3092286",
      "absolute_magnitude_h" : 24.6,
      "estimated_diameter" : {
        "kilometers" : {
          "estimated_diameter_min" : 0.0319561887,
          "estimated_diameter_max" : 0.0714562102
        },
        "meters" : {
          "estimated_diameter_min" : 31.9561886721,
          "estimated_diameter_max" : 71.4562101727
        },
        "miles" : {
          "estimated_diameter_min" : 0.0198566489,
          "estimated_diameter_max" : 0.0444008168
        },
        "feet" : {
          "estimated_diameter_min" : 104.8431420431,
          "estimated_diameter_max" : 234.436392583
        }
      },
      "is_potentially_hazardous_asteroid" : false,
      "close_approach_data" : [ {
        "close_approach_date" : "2001-01-22",
        "epoch_date_close_approach" : 980150400000,
        "relative_velocity" : {
          "kilometers_per_second" : "10.7772944094",
          "kilometers_per_hour" : "38798.2598738821",
          "miles_per_hour" : "24107.729864413"
        },
        "miss_distance" : {
          "astronomical" : "0.0362833721",
          "lunar" : "14.1142320633",
          "kilometers" : "5427915.5",
          "miles" : "3372750.25"
        },
        "orbiting_body" : "Earth"
      } ],
      "orbital_data" : {
        "orbit_id" : "11",
        "orbit_determination_date" : "2017-04-06 09:16:34",
        "orbit_uncertainty" : "8",
        "minimum_orbit_intersection" : ".033204",
        "jupiter_tisserand_invariant" : "4.164",
        "epoch_osculation" : "2451934.5",
        "eccentricity" : ".3866482196613914",
        "semi_major_axis" : "1.640060213877381",
        "inclination" : "16.73597714121066",
        "ascending_node_longitude" : "123.1709690844282",
        "orbital_period" : "767.1638265157652",
        "perihelion_distance" : "1.005933852044211",
        "perihelion_argument" : "342.7744932635809",
        "aphelion_distance" : "2.274186575710551",
        "perihelion_time" : "2451918.293569418123",
        "mean_anomaly" : "7.605044460937999",
        "mean_motion" : ".4692609160614561",
        "equinox" : "J2000"
      }
    }, {
      "links" : {
        "self" : "https://api.nasa.gov/neo/rest/v1/neo/2267223?api_key=t0TVs3DtDT2H8Oy2Zy8m2eVrNsAVKAexjcZXUckd"
      },
      "neo_reference_id" : "2267223",
      "name" : "267223 (2001 DQ8)",
      "nasa_jpl_url" : "http://ssd.jpl.nasa.gov/sbdb.cgi?sstr=2267223",
      "absolute_magnitude_h" : 18.1,
      "estimated_diameter" : {
        "kilometers" : {
          "estimated_diameter_min" : 0.6376097899,
          "estimated_diameter_max" : 1.4257388333
        },
        "meters" : {
          "estimated_diameter_min" : 637.6097898754,
          "estimated_diameter_max" : 1425.7388332807
        },
        "miles" : {
          "estimated_diameter_min" : 0.3961922327,
          "estimated_diameter_max" : 0.8859127646
        },
        "feet" : {
          "estimated_diameter_min" : 2091.8957030147,
          "estimated_diameter_max" : 4677.6209937807
        }
      },
      "is_potentially_hazardous_asteroid" : false,
      "close_approach_data" : [ {
        "close_approach_date" : "2001-01-22",
        "epoch_date_close_approach" : 980150400000,
        "relative_velocity" : {
          "kilometers_per_second" : "24.5212960752",
          "kilometers_per_hour" : "88276.6658705465",
          "miles_per_hour" : "54851.6871905071"
        },
        "miss_distance" : {
          "astronomical" : "0.3632443855",
          "lunar" : "141.3020629883",
          "kilometers" : "54340588",
          "miles" : "33765676"
        },
        "orbiting_body" : "Earth"
      } ],
      "orbital_data" : {
        "orbit_id" : "65",
        "orbit_determination_date" : "2017-04-06 09:24:38",
        "orbit_uncertainty" : "0",
        "minimum_orbit_intersection" : ".106558",
        "jupiter_tisserand_invariant" : "3.327",
        "epoch_osculation" : "2458000.5",
        "eccentricity" : ".9009731529779084",
        "semi_major_axis" : "1.842706954621161",
        "inclination" : "12.79057410499854",
        "ascending_node_longitude" : "342.7271352124852",
        "orbital_period" : "913.6562707105129",
        "perihelion_distance" : ".1824774597018141",
        "perihelion_argument" : "14.77481046733027",
        "aphelion_distance" : "3.502936449540508",
        "perihelion_time" : "2458278.170150727706",
        "mean_anomaly" : "250.5920558239716",
        "mean_motion" : ".3940212654809919",
        "equinox" : "J2000"
      }
    }, {
      "links" : {
        "self" : "https://api.nasa.gov/neo/rest/v1/neo/2368184?api_key=t0TVs3DtDT2H8Oy2Zy8m2eVrNsAVKAexjcZXUckd"
      },
      "neo_reference_id" : "2368184",
      "name" : "368184 (2000 RN77)",
      "nasa_jpl_url" : "http://ssd.jpl.nasa.gov/sbdb.cgi?sstr=2368184",
      "absolute_magnitude_h" : 19.5,
      "estimated_diameter" : {
        "kilometers" : {
          "estimated_diameter_min" : 0.3346223745,
          "estimated_diameter_max" : 0.7482383761
        },
        "meters" : {
          "estimated_diameter_min" : 334.6223744549,
          "estimated_diameter_max" : 748.2383760735
        },
        "miles" : {
          "estimated_diameter_min" : 0.2079246394,
          "estimated_diameter_max" : 0.464933628
        },
        "feet" : {
          "estimated_diameter_min" : 1097.8424710066,
          "estimated_diameter_max" : 2454.8503937571
        }
      },
      "is_potentially_hazardous_asteroid" : false,
      "close_approach_data" : [ {
        "close_approach_date" : "2001-01-22",
        "epoch_date_close_approach" : 980150400000,
        "relative_velocity" : {
          "kilometers_per_second" : "14.0351503665",
          "kilometers_per_hour" : "50526.5413192423",
          "miles_per_hour" : "31395.2278547259"
        },
        "miss_distance" : {
          "astronomical" : "0.2960726128",
          "lunar" : "115.1722412109",
          "kilometers" : "44291832",
          "miles" : "27521668"
        },
        "orbiting_body" : "Earth"
      } ],
      "orbital_data" : {
        "orbit_id" : "57",
        "orbit_determination_date" : "2017-04-06 09:22:35",
        "orbit_uncertainty" : "0",
        "minimum_orbit_intersection" : ".107335",
        "jupiter_tisserand_invariant" : "6.252",
        "epoch_osculation" : "2458000.5",
        "eccentricity" : ".3180173175475633",
        "semi_major_axis" : ".9507523505586194",
        "inclination" : "16.10239036863631",
        "ascending_node_longitude" : "312.7493226805265",
        "orbital_period" : "338.6098119429471",
        "perihelion_distance" : ".6483966383819266",
        "perihelion_argument" : "211.7117195401585",
        "aphelion_distance" : "1.253108062735312",
        "perihelion_time" : "2458051.601920317069",
        "mean_anomaly" : "305.669940251925",
        "mean_motion" : "1.063170609068638",
        "equinox" : "J2000"
      }
    } ]
  }
}